EARTHCARE               
1 59908U 24101A   24235.88118144  .00028224  00000+0  39466-3 0  9998
2 59908  96.9873   2.0949 0003409 199.0785 161.0344 15.56791406 13359
